GSAT0101 (PRN E11)      
1 37846U 11060A   24079.38917061 -.00000113  00000+0  00000+0 0  9997
2 37846  57.1271   3.9628 0004108   5.3149 354.6892  1.70475961 77142
GSAT0102 (PRN E12)      
1 37847U 11060B   24075.36853573 -.00000108  00000+0  00000+0 0  9993
2 37847  57.1277   4.0716 0005128 340.5417 117.7805  1.70475226 77083
GSAT0103 (PRN E19)      
1 38857U 12055A   24077.08212499 -.00000003  00000+0  00000+0 0  9991
2 38857  55.3621 124.1355 0005270 267.6966  92.3107  1.70473587 70991
GSAT0104 (PRN E20)      
1 38858U 12055B   24077.63792410 -.00000001  00000+0  00000+0 0  9997
2 38858  55.3638 124.1219 0003047 264.1185  95.9146  1.70473812 71000
GSAT0201 (PRN E18)      
1 40128U 14050A   24080.15363677 -.00000049  00000+0  00000+0 0  9999
2 40128  49.7468 306.6385 1607467 147.7628 223.1691  1.85519652 63120
GSAT0202 (PRN E14)      
1 40129U 14050B   24077.71731264 -.00000055  00000+0  00000+0 0  9996
2 40129  49.7663 305.8118 1605777 148.4767 222.2355  1.85520250 65245
GSAT0203 (PRN E26)      
1 40544U 15017A   24073.30254186 -.00000102  00000+0  00000+0 0  9998
2 40544  56.9221   4.0745 0004119 291.9872  67.9695  1.70475457 55122
GSAT0204 (PRN E22)      
1 40545U 15017B   24074.14320051 -.00000105  00000+0  00000+0 0  9990
2 40545  56.9284   4.0666 0003350 281.7601  78.2034  1.70475364 18181
GSAT0205 (PRN E24)      
1 40889U 15045A   24076.84456596  .00000028  00000+0  00000+0 0  9998
2 40889  55.2656 244.3185 0005887  44.3383 315.6720  1.70473651 52993
GSAT0206 (PRN E30)      
1 40890U 15045B   24077.65178920  .00000025  00000+0  00000+0 0  9999
2 40890  55.2631 244.2915 0003808  46.3228 313.6730  1.70473632 53033
GSAT0209 (PRN E09)      
1 41174U 15079A   24080.75485632  .00000022  00000+0  00000+0 0  9995
2 41174  55.3827 123.7429 0004789 303.9265  56.1080  1.70474826 50827
GSAT0208 (PRN E08)      
1 41175U 15079B   24080.97457164  .00000024  00000+0  00000+0 0  9991
2 41175  55.3814 123.7349 0004250 302.2682  57.7719  1.70474719 51247
GSAT0211 (PRN E02)      
1 41549U 16030A   24079.92383859  .00000014  00000+0  00000+0 0  9995
2 41549  55.4112 244.2303 0003256  17.5548 342.4169  1.70473773 48704
GSAT0210 (PRN E01)      
1 41550U 16030B   24076.10899450  .00000030  00000+0  00000+0 0  9991
2 41550  55.4070 244.3363 0001306 358.1037   1.8573  1.70473755 48634
GSAT0207 (PRN E07)      
1 41859U 16069A   24079.28880607  .00000009  00000+0  00000+0 0  9997
2 41859  55.0468 123.8068 0005253 291.0669  68.9496  1.70474760 45426
GSAT0212 (PRN E03)      
1 41860U 16069B   24077.97003635  .00000000  00000+0  00000+0 0  9992
2 41860  55.0432 123.8399 0003501 309.7385  50.2990  1.70474967 45659
GSAT0213 (PRN E04)      
1 41861U 16069C   24079.51089061  .00000011  00000+0  00000+0 0  9994
2 41861  55.0466 123.8038 0005472 274.5896  85.4215  1.70473484 45543
GSAT0214 (PRN E05)      
1 41862U 16069D   24080.24357051  .00000017  00000+0  00000+0 0  9990
2 41862  55.0451 123.7770 0004410 276.8827  83.1444  1.70475076 45683
GSAT0215 (PRN E21)      
1 43055U 17079A   24078.38663802  .00000022  00000+0  00000+0 0  9990
2 43055  55.3872 244.0959 0000679  21.5957 338.3711  1.70474454 38994
GSAT0216 (PRN E25)      
1 43056U 17079B   24076.91865947  .00000028  00000+0  00000+0 0  9998
2 43056  55.3883 244.1362 0001720 316.3645  43.5851  1.70474520 38986
GSAT0217 (PRN E27)      
1 43057U 17079C   24077.72567558  .00000025  00000+0  00000+0 0  9993
2 43057  55.3899 244.1127 0001993 346.1678  13.7908  1.70474469 38986
GSAT0218 (PRN E31)      
1 43058U 17079D   24080.29202336  .00000012  00000+0  00000+0 0  9996
2 43058  55.3847 244.0397 0002004 297.2547  62.6837  1.70474540 39056
GSAT0221 (PRN E15)      
1 43564U 18060A   24073.15310948 -.00000102  00000+0  00000+0 0  9996
2 43564  57.3028   4.0542 0005044 303.0742  56.8777  1.70475060 35093
GSAT0222 (PRN E33)      
1 43565U 18060B   24075.13124167 -.00000108  00000+0  00000+0 0  9999
2 43565  57.3058   4.0029 0003311 282.2281  77.7362  1.70475065 35163
GSAT0219 (PRN E36)      
1 43566U 18060C   24073.59354034 -.00000103  00000+0  00000+0 0  9991
2 43566  57.3053   4.0464 0004159 322.6196  37.3521  1.70475117 35119
GSAT0220 (PRN E13)      
1 43567U 18060D   24073.22747821 -.00000102  00000+0  00000+0 0  9991
2 43567  57.3051   4.0560 0004572 309.8424  50.1177  1.70475162 35092
GSAT0223 (PRN E34)      
1 49809U 21116A   24080.27455414 -.00000111  00000+0  00000+0 0  9999
2 49809  57.2960   3.7612 0001150 284.7020 170.5736  1.70475696 14223
GSAT0224 (PRN E10)      
1 49810U 21116B   24075.39474642 -.00000108  00000+0  00000+0 0  9998
2 49810  57.2968   3.8907 0001282 308.3744 144.5609  1.70475412 14151
